NORAD_CAT_ID,OBJECT_NAME,OBJECT_TYPE,EPOCH,MEAN_MOTION,ECCENTRICITY,INCLINATION,RA_OF_ASC_NODE,ARG_OF_PERICENTER,MEAN_ANOMALY,BSTAR,MEAN_MOTION_DOT,MEAN_MOTION_DDOT,TLE_LINE0,TLE_LINE1,TLE_LINE2,SEMIMAJOR_AXIS,PERIOD,APOGEE,PERIGEE,DECAYED
55668.0,STARLINK-5455,PAYLOAD,2023-11-26 14:16:14,14.98328761,0.000245,70.0024,107.5746,227.0188,133.0766,5.2366e-05,5.32e-06,0.0,0 STARLINK-5455,1 55668U 23021AS  23330.59460840  .00000532  00000-0  52366-4 0  9991,2 55668  70.0024 107.5746 0002450 227.0188 133.0766 14.98328761 44344,6950.197,96.107,573.765,570.359,0.0
55668.0,STARLINK-5455,PAYLOAD,2023-11-26 19:04:38,14.98331832,0.0002492,70.0017,107.0689,240.4312,119.6599,5.9942e-05,6.22e-06,0.0,0 STARLINK-5455,1 55668U 23021AS  23330.79488552  .00000622  00000-0  59942-4 0  9990,2 55668  70.0017 107.0689 0002492 240.4312 119.6599 14.98331832 44078,6950.187,96.107,573.784,570.32,0.0
55668.0,STARLINK-5455,PAYLOAD,2023-11-27 11:05:59,14.9832788,0.0002413,70.0024,105.39,238.0088,122.0837,-8.5654e-05,-1.115e-05,0.0,0 STARLINK-5455,1 55668U 23021AS  23331.46249166 -.00001115  00000-0 -85654-4 0  9990,2 55668  70.0024 105.3900 0002413 238.0088 122.0837 14.98327880 44171,6950.199,96.107,573.742,570.387,0.0
55668.0,STARLINK-5455,PAYLOAD,2023-11-27 14:18:15,14.98322655,0.0002506,70.0009,105.0487,253.2354,106.853,-0.00015386,-1.928e-05,0.0,0 STARLINK-5455,1 55668U 23021AS  23331.59601676 -.00001928  00000-0 -15386-3 0  9998,2 55668  70.0009 105.0487 0002506 253.2354 106.8530 14.98322655 44499,6950.216,96.107,573.822,570.339,0.0
55668.0,STARLINK-5455,PAYLOAD,2023-11-27 19:06:40,14.98321847,0.0002588,70.0009,104.5432,262.6507,97.4358,-0.00013141,-1.66e-05,0.0,0 STARLINK-5455,1 55668U 23021AS  23331.79629770 -.00001660  00000-0 -13141-3 0  9995,2 55668  70.0009 104.5432 0002588 262.6507  97.4358 14.98321847 44223,6950.218,96.108,573.882,570.284,0.0
55668.0,STARLINK-5455,PAYLOAD,2023-11-28 11:07:59,14.98408913,0.0002282,70.0001,102.8575,245.0048,115.0874,-0.0013738,-0.00016479,0.0,0 STARLINK-5455,1 55668U 23021AS  23332.46388374 -.00016479  00000-0 -13738-2 0  9997,2 55668  70.0001 102.8575 0002282 245.0048 115.0874 14.98408913 44321,6949.949,96.102,573.4,570.228,0.0
55668.0,STARLINK-5455,PAYLOAD,2023-11-28 14:20:15,14.98403008,0.0002171,70.0004,102.5209,247.7378,112.3551,-0.0012728,-0.00015275,0.0,0 STARLINK-5455,1 55668U 23021AS  23332.59739935 -.00015275  00000-0 -12728-2 0  9995,2 55668  70.0004 102.5209 0002171 247.7378 112.3551 14.98403008 44644,6949.967,96.102,573.341,570.323,0.0
55668.0,STARLINK-5455,PAYLOAD,2023-11-28 19:08:39,14.98375857,0.0002119,70.0008,102.0171,245.5574,114.5364,-0.00068065,-8.214e-05,0.0,0 STARLINK-5455,1 55668U 23021AS  23332.79767499 -.00008214  00000-0 -68065-3 0  9994,2 55668  70.0008 102.0171 0002119 245.5574 114.5364 14.98375857 44373,6950.051,96.104,573.389,570.443,0.0
55668.0,STARLINK-5455,PAYLOAD,2023-11-29 12:46:09,14.98318013,0.000259,70.0012,100.1665,261.7855,98.3011,6.5737e-05,6.91e-06,0.0,0 STARLINK-5455,1 55668U 23021AS  23333.53205565  .00000691  00000-0  65737-4 0  9991,2 55668  70.0012 100.1665 0002590 261.7855  98.3011 14.98318013 44481,6950.23,96.108,573.895,570.295,0.0
55668.0,STARLINK-5455,PAYLOAD,2023-11-29 14:22:17,14.98317893,0.0002601,70.0011,99.998,261.2971,98.7894,6.1261e-05,6.38e-06,0.0,0 STARLINK-5455,1 55668U 23021AS  23333.59881628  .00000638  00000-0  61261-4 0  9996,2 55668  70.0011  99.9980 0002601 261.2971  98.7894 14.98317893 44794,6950.23,96.108,573.903,570.288,0.0
55668.0,STARLINK-5455,PAYLOAD,2023-11-29 17:34:33,14.98337094,0.000226,70.0013,99.6614,250.681,109.4105,-0.00022922,-2.827e-05,0.0,0 STARLINK-5455,1 55668U 23021AS  23333.73233200 -.00002827  00000-0 -22922-3 0  9993,2 55668  70.0013  99.6614 0002260 250.6810 109.4105 14.98337094 44512,6950.171,96.107,573.607,570.465,0.0
55668.0,STARLINK-5455,PAYLOAD,2023-11-30 17:36:34,14.98334331,0.0002972,70.0005,97.1359,266.9121,93.1698,1.9215e-05,1.36e-06,0.0,0 STARLINK-5455,1 55668U 23021AS  23334.73372872  .00000136  00000-0  19215-4 0  9994,2 55668  70.0005  97.1359 0002972 266.9121  93.1698 14.98334331 44660,6950.179,96.107,574.11,569.979,0.0
55668.0,STARLINK-5455,PAYLOAD,2023-12-01 17:38:34,14.98331869,0.0002553,70.0016,94.6122,248.1783,111.9104,0.00011866,1.323e-05,0.0,0 STARLINK-5455,1 55668U 23021AS  23335.73512650  .00001323  00000-0  11866-3 0  9997,2 55668  70.0016  94.6122 0002553 248.1783 111.9104 14.98331869 44814,6950.187,96.107,573.826,570.278,0.0
55668.0,STARLINK-5455,PAYLOAD,2023-12-02 14:28:18,14.9834379,0.0002592,70.0018,92.4248,242.6946,117.3949,0.00013015,1.461e-05,0.0,0 STARLINK-5455,1 55668U 23021AS  23336.60299236  .00001461  00000-0  13015-3 0  9997,2 55668  70.0018  92.4248 0002592 242.6946 117.3949 14.98343790 45245,6950.15,96.106,573.817,570.214,0.0
55668.0,STARLINK-5455,PAYLOAD,2023-12-02 17:40:34,14.98349642,0.0002629,70.0014,92.0884,244.9791,115.1095,0.00011866,1.324e-05,0.0,0 STARLINK-5455,1 55668U 23021AS  23336.73650742  .00001324  00000-0  11866-3 0  9994,2 55668  70.0014  92.0884 0002629 244.9791 115.1095 14.98349642 44965,6950.132,96.106,573.824,570.17,0.0
55668.0,STARLINK-5455,PAYLOAD,2023-12-03 11:18:06,14.98302814,0.000289,70.0004,90.2339,268.9985,91.0843,-0.00041571,-5.046e-05,0.0,0 STARLINK-5455,1 55668U 23021AS  23337.47091324 -.00005046  00000-0 -41571-3 0  9994,2 55668  70.0004  90.2339 0002890 268.9985  91.0843 14.98302814 45076,6950.277,96.109,574.151,570.133,0.0
55668.0,STARLINK-5455,PAYLOAD,2023-12-03 14:30:23,14.98300925,0.0002609,70.0013,89.8976,263.2287,96.8576,-0.00041542,-5.042e-05,0.0,0 STARLINK-5455,1 55668U 23021AS  23337.60443644 -.00005042  00000-0 -41542-3 0  9999,2 55668  70.0013  89.8976 0002609 263.2287  96.8576 14.98300925 45390,6950.283,96.109,573.961,570.334,0.0
55668.0,STARLINK-5455,PAYLOAD,2023-12-04 11:20:07,14.98321272,0.0002702,70.0015,87.71,277.1296,82.9555,-0.0002152,-2.659e-05,0.0,0 STARLINK-5455,1 55668U 23021AS  23338.47230728 -.00002659  00000-0 -21520-3 0  9997,2 55668  70.0015  87.7100 0002702 277.1296  82.9555 14.98321272 45229,6950.22,96.108,573.963,570.207,0.0
55668.0,STARLINK-5455,PAYLOAD,2023-12-05 11:22:07,14.98305355,0.0002771,70.0003,85.1841,270.2279,89.8562,0.00019709,2.258e-05,0.0,0 STARLINK-5455,1 55668U 23021AS  23339.47369660  .00002258  00000-0  19709-3 0  9995,2 55668  70.0003  85.1841 0002771 270.2279  89.8562 14.98305355 45375,6950.269,96.109,574.06,570.208,0.0
55668.0,STARLINK-5455,PAYLOAD,2023-12-05 12:58:15,14.98304257,0.0002418,70.0014,85.017,260.2474,99.8412,0.00019685,2.255e-05,0.0,0 STARLINK-5455,1 55668U 23021AS  23339.54045678  .00002255  00000-0  19685-3 0  9993,2 55668  70.0014  85.0170 0002418 260.2474  99.8412 14.98304257 45684,6950.273,96.109,573.818,570.457,0.0
55668.0,STARLINK-5455,PAYLOAD,2023-12-05 17:46:40,14.98304146,0.0002993,70.0004,84.5108,276.0471,84.0347,0.00016093,1.826e-05,0.0,0 STARLINK-5455,1 55668U 23021AS  23339.74074258  .00001826  00000-0  16093-3 0  9994,2 55668  70.0004  84.5108 0002993 276.0471  84.0347 14.98304146 45712,6950.273,96.109,574.218,570.058,0.0
55668.0,STARLINK-5455,PAYLOAD,2023-12-06 11:24:08,14.98327186,0.000292,70.0004,82.6607,270.2023,89.8801,-6.5513e-06,-1.71e-06,0.0,0 STARLINK-5455,1 55668U 23021AS  23340.47509704 -.00000171  00000-0 -65513-5 0  9992,2 55668  70.0004  82.6607 0002920 270.2023  89.8801 14.98327186 45520,6950.202,96.107,574.096,570.037,0.0
55668.0,STARLINK-5455,PAYLOAD,2023-12-06 13:00:16,14.98327685,0.0002917,70.0006,82.4928,270.636,89.4465,4.6261e-06,-3.8e-07,0.0,0 STARLINK-5455,1 55668U 23021AS  23340.54185643 -.00000038  00000-0  46261-5 0  9992,2 55668  70.0006  82.4928 0002917 270.6360  89.4465 14.98327685 45830,6950.2,96.107,574.092,570.038,0.0
55668.0,STARLINK-5455,PAYLOAD,2023-12-07 11:26:08,14.98349718,0.0002476,70.0027,80.1378,246.4291,113.6608,-0.00048033,-5.822e-05,0.0,0 STARLINK-5455,1 55668U 23021AS  23341.47648670 -.00005822  00000-0 -48033-3 0  9993,2 55668  70.0027  80.1378 0002476 246.4291 113.6608 14.98349718 45673,6950.132,96.106,573.718,570.276,0.0
55668.0,STARLINK-5455,PAYLOAD,2023-12-07 13:02:17,14.98345979,0.0001873,70.0038,79.9709,258.9807,101.1142,-0.00078465,-9.446e-05,0.0,0 STARLINK-5455,1 55668U 23021AS  23341.54325922 -.00009446  00000-0 -78465-3 0  9991,2 55668  70.0038  79.9709 0001873 258.9807 101.1142 14.98345979 45984,6950.143,96.106,573.31,570.707,0.0
55668.0,STARLINK-5455,PAYLOAD,2023-12-08 11:28:09,14.98349557,0.0002623,70.0016,77.6123,252.2576,107.8297,-0.00027995,-3.433e-05,0.0,0 STARLINK-5455,1 55668U 23021AS  23342.47788378 -.00003433  00000-0 -27995-3 0  9994,2 55668  70.0016  77.6123 0002623 252.2576 107.8297 14.98349557 45822,6950.132,96.106,573.82,570.174,0.0
55668.0,STARLINK-5455,PAYLOAD,2023-12-08 13:04:17,14.98336277,0.0002305,70.003,77.446,237.0604,123.0333,-0.00015995,-2.001e-05,0.0,0 STARLINK-5455,1 55668U 23021AS  23342.54464786 -.00002001  00000-0 -15995-3 0  9993,2 55668  70.0030  77.4460 0002305 237.0604 123.0333 14.98336277 46131,6950.173,96.107,573.64,570.436,0.0
55668.0,STARLINK-5455,PAYLOAD,2023-12-08 16:16:33,14.98349367,0.0002721,70.0008,77.1055,261.1306,98.9545,-0.00025209,-3.101e-05,0.0,0 STARLINK-5455,1 55668U 23021AS  23342.67816119 -.00003101  00000-0 -25209-3 0  9999,2 55668  70.0008  77.1055 0002721 261.1306  98.9545 14.98349367 46153,6950.133,96.106,573.889,570.107,0.0
55668.0,STARLINK-5455,PAYLOAD,2023-12-09 11:30:10,14.98327553,0.0002564,70.002,75.0876,256.6414,103.446,1.0416e-05,3.1e-07,0.0,0 STARLINK-5455,1 55668U 23021AS  23343.47928898  .00000031  00000-0  10416-4 0  9998,2 55668  70.0020  75.0876 0002564 256.6414 103.4460 14.98327553 45979,6950.2,96.107,573.847,570.283,0.0
55668.0,STARLINK-5455,PAYLOAD,2023-12-09 13:06:19,14.98314384,0.0002521,70.0021,74.92,255.9786,104.1093,-0.00010154,-1.304e-05,0.0,0 STARLINK-5455,1 55668U 23021AS  23343.54606031 -.00001304  00000-0 -10154-3 0  9992,2 55668  70.0021  74.9200 0002521 255.9786 104.1093 14.98314384 46289,6950.241,96.108,573.858,570.354,0.0
